{
  "type": "FeatureCollection",
  "features": [
    {
      "type": "Feature",
      "properties": {
        "norad_id": 36369,
        "name": "COSMOS 2251 DEB",
        "group": "cosmos-2251-debris",
        "lat": 73.4418895111506,
        "lon": 162.43187618576061,
        "alt_km": 642.3921711845642,
        "timestamp": "2025-12-03T20:47:58.623028+00:00",
        "meta_object_name": "COSMOS 2251 DEB",
        "meta_object_id": "1993-036AYW",
        "meta_epoch": "2025-12-03T00:51:19.677888",
        "meta_mean_motion": 14.73251105,
        "meta_eccentricity": 0.00123913,
        "meta_inclination": 74.0302,
        "meta_ra_of_asc_node": 89.6499,
        "meta_arg_of_pericenter": 171.9331,
        "meta_mean_anomaly": 188.2043,
        "meta_ephemeris_type": 0,
        "meta_classification_type": "U",
        "meta_norad_cat_id": 36369,
        "meta_element_set_no": 999,
        "meta_rev_at_epoch": 85779,
        "meta_bstar": 0.0024127468,
        "meta_mean_motion_dot": 0.00015612,
        "meta_mean_motion_ddot": 0,
        "tle_line1": "1 36369U 93036AYW 25337.03564442  .00015612  00000+0  24127-2 0  9998",
        "tle_line2": "2 36369  74.0302  89.6499 0012391 171.9331 188.2043 14.73251105857792"
      },
      "geometry": {
        "type": "Point",
        "coordinates": [
          162.43187618576061,
          73.4418895111506
        ]
      }
    },
    {
      "type": "Feature",
      "properties": {
        "norad_id": 36371,
        "name": "COSMOS 2251 DEB",
        "group": "cosmos-2251-debris",
        "lat": 73.98960331502074,
        "lon": -88.76729879192976,
        "alt_km": 657.3836795977477,
        "timestamp": "2025-12-03T20:47:58.623039+00:00",
        "meta_object_name": "COSMOS 2251 DEB",
        "meta_object_id": "1993-036AYY",
        "meta_epoch": "2025-11-30T20:32:02.763456",
        "meta_mean_motion": 14.70225787,
        "meta_eccentricity": 0.00108974,
        "meta_inclination": 74.0137,
        "meta_ra_of_asc_node": 184.6205,
        "meta_arg_of_pericenter": 224.8098,
        "meta_mean_anomaly": 135.2194,
        "meta_ephemeris_type": 0,
        "meta_classification_type": "U",
        "meta_norad_cat_id": 36371,
        "meta_element_set_no": 999,
        "meta_rev_at_epoch": 71270,
        "meta_bstar": 0.0018017068,
        "meta_mean_motion_dot": 0.00010857,
        "meta_mean_motion_ddot": 0,
        "tle_line1": "1 36371U 93036AYY 25334.85558754  .00010857  00000+0  18017-2 0  9994",
        "tle_line2": "2 36371  74.0137 184.6205 0010897 224.8098 135.2194 14.70225787712703"
      },
      "geometry": {
        "type": "Point",
        "coordinates": [
          -88.76729879192976,
          73.98960331502074
        ]
      }
    },
    {
      "type": "Feature",
      "properties": {
        "norad_id": 36379,
        "name": "COSMOS 2251 DEB",
        "group": "cosmos-2251-debris",
        "lat": -73.97690711037929,
        "lon": -123.52852296572065,
        "alt_km": 810.2803760368943,
        "timestamp": "2025-12-03T20:47:58.623051+00:00",
        "meta_object_name": "COSMOS 2251 DEB",
        "meta_object_id": "1993-036AZG",
        "meta_epoch": "2025-12-02T08:45:01.281024",
        "meta_mean_motion": 14.36049037,
        "meta_eccentricity": 0.00444977,
        "meta_inclination": 74.0124,
        "meta_ra_of_asc_node": 325.9012,
        "meta_arg_of_pericenter": 97.8988,
        "meta_mean_anomaly": 330.8208,
        "meta_ephemeris_type": 0,
        "meta_classification_type": "U",
        "meta_norad_cat_id": 36379,
        "meta_element_set_no": 999,
        "meta_rev_at_epoch": 64679,
        "meta_bstar": 0.0003527666,
        "meta_mean_motion_dot": 1.012e-05,
        "meta_mean_motion_ddot": 0,
        "tle_line1": "1 36379U 93036AZG 25336.36459816  .00001012  00000+0  35277-3 0  9990",
        "tle_line2": "2 36379  74.0124 325.9012 0044497  97.8988 330.8208 14.36049037646790"
      },
      "geometry": {
        "type": "Point",
        "coordinates": [
          -123.52852296572065,
          -73.97690711037929
        ]
      }
    },
    {
      "type": "Feature",
      "properties": {
        "norad_id": 36385,
        "name": "COSMOS 2251 DEB",
        "group": "cosmos-2251-debris",
        "lat": 36.22938490971987,
        "lon": -20.276569740652974,
        "alt_km": 739.5267449434987,
        "timestamp": "2025-12-03T20:47:58.623062+00:00",
        "meta_object_name": "COSMOS 2251 DEB",
        "meta_object_id": "1993-036AZN",
        "meta_epoch": "2025-12-02T19:41:49.805376",
        "meta_mean_motion": 14.72268382,
        "meta_eccentricity": 0.01411536,
        "meta_inclination": 73.969,
        "meta_ra_of_asc_node": 173.928,
        "meta_arg_of_pericenter": 350.6385,
        "meta_mean_anomaly": 9.2157,
        "meta_ephemeris_type": 0,
        "meta_classification_type": "U",
        "meta_norad_cat_id": 36385,
        "meta_element_set_no": 999,
        "meta_rev_at_epoch": 84956,
        "meta_bstar": 0.0016407111,
        "meta_mean_motion_dot": 0.00012116,
        "meta_mean_motion_ddot": 0,
        "tle_line1": "1 36385U 93036AZN 25336.82071534  .00012116  00000+0  16407-2 0  9995",
        "tle_line2": "2 36385  73.9690 173.9280 0141153 350.6385   9.2157 14.72268382849565"
      },
      "geometry": {
        "type": "Point",
        "coordinates": [
          -20.276569740652974,
          36.22938490971987
        ]
      }
    },
    {
      "type": "Feature",
      "properties": {
        "norad_id": 36420,
        "name": "COSMOS 2251 DEB",
        "group": "cosmos-2251-debris",
        "lat": 52.79128189263786,
        "lon": 89.64621078166323,
        "alt_km": 766.181544145591,
        "timestamp": "2025-12-03T20:47:58.623072+00:00",
        "meta_object_name": "COSMOS 2251 DEB",
        "meta_object_id": "1993-036AZT",
        "meta_epoch": "2025-12-03T05:28:58.353024",
        "meta_mean_motion": 14.3688527,
        "meta_eccentricity": 0.0017673,
        "meta_inclination": 74.0372,
        "meta_ra_of_asc_node": 292.9652,
        "meta_arg_of_pericenter": 23.016,
        "meta_mean_anomaly": 40.8577,
        "meta_ephemeris_type": 0,
        "meta_classification_type": "U",
        "meta_norad_cat_id": 36420,
        "meta_element_set_no": 999,
        "meta_rev_at_epoch": 84900,
        "meta_bstar": 0.00024398,
        "meta_mean_motion_dot": 6.97e-06,
        "meta_mean_motion_ddot": 0,
        "tle_line1": "1 36420U 93036AZT 25337.22845316  .00000697  00000+0  24398-3 0  9997",
        "tle_line2": "2 36420  74.0372 292.9652 0017673  23.0160  40.8577 14.36885270849007"
      },
      "geometry": {
        "type": "Point",
        "coordinates": [
          89.64621078166323,
          52.79128189263786
        ]
      }
    },
    {
      "type": "Feature",
      "properties": {
        "norad_id": 36430,
        "name": "COSMOS 2251 DEB",
        "group": "cosmos-2251-debris",
        "lat": 68.73514554032427,
        "lon": 172.12215422285016,
        "alt_km": 857.4610200266052,
        "timestamp": "2025-12-03T20:47:58.623083+00:00",
        "meta_object_name": "COSMOS 2251 DEB",
        "meta_object_id": "1993-036BAD",
        "meta_epoch": "2025-12-02T02:24:06.345216",
        "meta_mean_motion": 14.27749233,
        "meta_eccentricity": 0.00972219,
        "meta_inclination": 74.0032,
        "meta_ra_of_asc_node": 127.8413,
        "meta_arg_of_pericenter": 280.0414,
        "meta_mean_anomaly": 78.9776,
        "meta_ephemeris_type": 0,
        "meta_classification_type": "U",
        "meta_norad_cat_id": 36430,
        "meta_element_set_no": 999,
        "meta_rev_at_epoch": 64405,
        "meta_bstar": 0.00050130436,
        "meta_mean_motion_dot": 1.275e-05,
        "meta_mean_motion_ddot": 0,
        "tle_line1": "1 36430U 93036BAD 25336.10007344  .00001275  00000+0  50130-3 0  9991",
        "tle_line2": "2 36430  74.0032 127.8413 0097221 280.0414  78.9776 14.27749233644055"
      },
      "geometry": {
        "type": "Point",
        "coordinates": [
          172.12215422285016,
          68.73514554032427
        ]
      }
    },
    {
      "type": "Feature",
      "properties": {
        "norad_id": 36437,
        "name": "COSMOS 2251 DEB",
        "group": "cosmos-2251-debris",
        "lat": 23.813244489472694,
        "lon": -135.984473450761,
        "alt_km": 668.7304494819209,
        "timestamp": "2025-12-03T20:47:58.623093+00:00",
        "meta_object_name": "COSMOS 2251 DEB",
        "meta_object_id": "1993-036BAL",
        "meta_epoch": "2025-12-02T22:52:02.631936",
        "meta_mean_motion": 14.70397135,
        "meta_eccentricity": 0.00231807,
        "meta_inclination": 73.9435,
        "meta_ra_of_asc_node": 53.1,
        "meta_arg_of_pericenter": 284.4468,
        "meta_mean_anomaly": 75.413,
        "meta_ephemeris_type": 0,
        "meta_classification_type": "U",
        "meta_norad_cat_id": 36437,
        "meta_element_set_no": 999,
        "meta_rev_at_epoch": 65907,
        "meta_bstar": 0.0020592737,
        "meta_mean_motion_dot": 0.00012505,
        "meta_mean_motion_ddot": 0,
        "tle_line1": "1 36437U 93036BAL 25336.95280824  .00012505  00000+0  20593-2 0  9994",
        "tle_line2": "2 36437  73.9435  53.1000 0023180 284.4468  75.4130 14.70397135659072"
      },
      "geometry": {
        "type": "Point",
        "coordinates": [
          -135.984473450761,
          23.813244489472694
        ]
      }
    }
  ]
}